[
    {
        "Altitude(m)": 703949.8838363866,
        "Argument of Periapsis(deg)": 0.011390121186627068,
        "Eccentricity": 0.0,
        "Inclination(deg)": 45.0,
        "Latitude(deg)": -3.4860011840098424,
        "Longitude(deg)": -109.24745072557504,
        "Mean Anomaly(deg)": -4.830383352519265,
        "RAAN(deg)": 354.98924805854176,
        "Satellite Name": "Constellation 1 1583",
        "Satellite Number": 1583,
        "Semi-Major Axis(m)": 7083131.272910544,
        "Time(s)": 190
    },
    {
        "Altitude(m)": 703942.6492859791,
        "Argument of Periapsis(deg)": 0.011450069192872472,
        "Eccentricity": 0.0,
        "Inclination(deg)": 45.0,
        "Latitude(deg)": -3.4428712779868063,
        "Longitude(deg)": -109.20855167075763,
        "Mean Anomaly(deg)": -4.769682212269327,
        "RAAN(deg)": 354.98919146937624,
        "Satellite Name": "Constellation 1 1583",
        "Satellite Number": 1583,
        "Semi-Major Axis(m)": 7083131.272910544,
        "Time(s)": 191
    },
    {
        "Altitude(m)": 703935.4345848114,
        "Argument of Periapsis(deg)": 0.01151001719911788,
        "Eccentricity": 0.0,
        "Inclination(deg)": 45.0,
        "Latitude(deg)": -3.3997393085130696,
        "Longitude(deg)": -109.16965640613029,
        "Mean Anomaly(deg)": -4.708981072019389,
        "RAAN(deg)": 354.98913488021066,
        "Satellite Name": "Constellation 1 1583",
        "Satellite Number": 1583,
        "Semi-Major Axis(m)": 7083131.272910544,
        "Time(s)": 192
    },
    {
        "Altitude(m)": 703928.2397466382,
        "Argument of Periapsis(deg)": 0.011569965205363285,
        "Eccentricity": 0.0,
        "Inclination(deg)": 45.0,
        "Latitude(deg)": -3.3566053007851093,
        "Longitude(deg)": -109.13076505118387,
        "Mean Anomaly(deg)": -4.648279931769503,
        "RAAN(deg)": 354.98907829104513,
        "Satellite Name": "Constellation 1 1583",
        "Satellite Number": 1583,
        "Semi-Major Axis(m)": 7083131.272910544,
        "Time(s)": 193
    },
    {
        "Altitude(m)": 703921.0647851247,
        "Argument of Periapsis(deg)": 0.01162991321160869,
        "Eccentricity": 0.0,
        "Inclination(deg)": 45.0,
        "Latitude(deg)": -3.31346927999281,
        "Longitude(deg)": -109.09187722112613,
        "Mean Anomaly(deg)": -4.587578791519667,
        "RAAN(deg)": 354.98902170187955,
        "Satellite Name": "Constellation 1 1583",
        "Satellite Number": 1583,
        "Semi-Major Axis(m)": 7083131.272910544,
        "Time(s)": 194
    },
    {
        "Altitude(m)": 703913.909713852,
        "Argument of Periapsis(deg)": 0.011689861217854095,
        "Eccentricity": 0.0,
        "Inclination(deg)": 45.0,
        "Latitude(deg)": -3.270331271318859,
        "Longitude(deg)": -109.05299303546389,
        "Mean Anomaly(deg)": -4.526877651269679,
        "RAAN(deg)": 354.9889651127139,
        "Satellite Name": "Constellation 1 1583",
        "Satellite Number": 1583,
        "Semi-Major Axis(m)": 7083131.272910544,
        "Time(s)": 195
    },
    {
        "Altitude(m)": 703906.7745462996,
        "Argument of Periapsis(deg)": 0.0117498092240995,
        "Eccentricity": 0.0,
        "Inclination(deg)": 45.0,
        "Latitude(deg)": -3.2271912999396606,
        "Longitude(deg)": -109.01411244561491,
        "Mean Anomaly(deg)": -4.466176511019741,
        "RAAN(deg)": 354.9889085235484,
        "Satellite Name": "Constellation 1 1583",
        "Satellite Number": 1583,
        "Semi-Major Axis(m)": 7083131.272910544,
        "Time(s)": 196
    },
    {
        "Altitude(m)": 703899.6592958586,
        "Argument of Periapsis(deg)": 0.011809757230344905,
        "Eccentricity": 0.0,
        "Inclination(deg)": 45.0,
        "Latitude(deg)": -3.184049391025007,
        "Longitude(deg)": -108.9752354030048,
        "Mean Anomaly(deg)": -4.405475370769957,
        "RAAN(deg)": 354.9888519343828,
        "Satellite Name": "Constellation 1 1583",
        "Satellite Number": 1583,
        "Semi-Major Axis(m)": 7083131.272910544,
        "Time(s)": 197
    },
    {
        "Altitude(m)": 703892.5639758371,
        "Argument of Periapsis(deg)": 0.011869705236590313,
        "Eccentricity": 0.0,
        "Inclination(deg)": 45.0,
        "Latitude(deg)": -3.140905569737803,
        "Longitude(deg)": -108.9363618590664,
        "Mean Anomaly(deg)": -4.34477423052002,
        "RAAN(deg)": 354.9887953452173,
        "Satellite Name": "Constellation 1 1583",
        "Satellite Number": 1583,
        "Semi-Major Axis(m)": 7083131.272910544,
        "Time(s)": 198
    },
    {
        "Altitude(m)": 703885.4885994345,
        "Argument of Periapsis(deg)": 0.011929653242835719,
        "Eccentricity": 0.0,
        "Inclination(deg)": 45.0,
        "Latitude(deg)": -3.0977598612350024,
        "Longitude(deg)": -108.89749176524056,
        "Mean Anomaly(deg)": -4.284073090270082,
        "RAAN(deg)": 354.9887387560517,
        "Satellite Name": "Constellation 1 1583",
        "Satellite Number": 1583,
        "Semi-Major Axis(m)": 7083131.272910544,
        "Time(s)": 199
    }
]